GLOBALSTAR M024         
1 25883U 99043A   25281.04090955  .00000012  00000+0  27158-2 0  9998
2 25883  51.9986 125.9837 0000560 327.6503 192.9045 11.10169690127394
GLOBALSTAR M027         
1 25884U 99043B   25281.09350399 -.00000097  00000+0 -12537-2 0  9995
2 25884  52.0199 207.0465 0020981 172.0374 188.0755 11.04372699153716
GLOBALSTAR M054         
1 25885U 99043C   25281.03808825 -.00000072  00000+0 -31228-4 0  9995
2 25885  52.0152 315.5341 0005241  10.9936 358.8912 11.39220730131916
GLOBALSTAR M053         
1 25886U 99043D   25280.99520330 -.00000070  00000+0 -46922-4 0  9997
2 25886  51.9972 268.9893 0003324 279.4254 113.8693 11.27667500132174
GLOBALSTAR M058         
1 25907U 99049A   25280.98003263 -.00000082  00000+0  35214-4 0  9991
2 25907  51.9923 167.9875 0002540 114.4674 245.6425 11.93202897555000
GLOBALSTAR M050         
1 25908U 99049B   25281.15006096 -.00000142  00000+0 -60437-3 0  9991
2 25908  51.9972 166.7700 0008235 258.0584 261.3640 12.07458096161839
GLOBALSTAR M033         
1 25909U 99049C   25281.05718689 -.00000159  00000+0 -64490-3 0  9990
2 25909  51.9936  31.0569 0014522 135.9979 224.2027 12.20296606549529
GLOBALSTAR M055         
1 25910U 99049D   25281.02037441 -.00000079  00000+0  13258-3 0  9995
2 25910  52.0041  36.4150 0006859  12.0925 348.0091 12.29433380182165
